start=new Date('2021-09-23T00:00:00.000Z').valueOf();
sats=[{"APOAPSIS":"547.772","RCS_SIZE":"LARGE","EPHEMERIS_TYPE":"0","MEAN_ANOMALY":"294.9858","PERIOD":"95.592","GP_ID":"185239070","ECCENTRICITY":"0.00008160","ELEMENT_SET_NO":"999","SEMIMAJOR_AXIS":"6925.342","MEAN_MOTION":"15.06402186","DECAY_DATE":null,"COUNTRY_CODE":"US","PERIAPSIS":"546.642","EPOCH":"2021-09-22T10:09:09.517248","CLASSIFICATION_TYPE":"U","BSTAR":"0.00005666500000","LAUNCH_DATE":"2020-10-06","RA_OF_ASC_NODE":"270.5946","FILE":"3123417","TLE_LINE2":"2 46565  53.0554 270.5946 0000816  65.1215 294.9858 15.06402186 54218","NORAD_CAT_ID":"46565","OBJECT_ID":"2020-070AK","OBJECT_TYPE":"PAYLOAD","MEAN_MOTION_DDOT":"0.0000000000000","TIME_SYSTEM":"UTC","MEAN_ELEMENT_THEORY":"SGP4","OBJECT_NAME":"STARLINK-1735","CENTER_NAME":"EARTH","MEAN_MOTION_DOT":"0.00000563","REV_AT_EPOCH":"5421","ARG_OF_PERICENTER":"65.1215","INCLINATION":"53.0554","TLE_LINE1":"1 46565U 20070AK  21265.42302682  .00000563  00000-0  56665-4 0  9994","SITE":"AFETR","REF_FRAME":"TEME"},{"MEAN_MOTION_DDOT":"0.0000000000000","TIME_SYSTEM":"UTC","OBJECT_TYPE":"PAYLOAD","OBJECT_ID":"2020-070AL","NORAD_CAT_ID":"46566","TLE_LINE2":"2 46566  53.0547 269.2695 0000614  64.1866 295.9186 15.06393697 54260","SITE":"AFETR","REF_FRAME":"TEME","TLE_LINE1":"1 46566U 20070AL  21265.74002056 -.00000650  00000-0 -24785-4 0  9999","INCLINATION":"53.0547","ARG_OF_PERICENTER":"64.1866","REV_AT_EPOCH":"5426","MEAN_MOTION_DOT":"-0.00000650","CENTER_NAME":"EARTH","OBJECT_NAME":"STARLINK-1740","MEAN_ELEMENT_THEORY":"SGP4","SEMIMAJOR_AXIS":"6925.368","GP_ID":"185268514","ECCENTRICITY":"0.00006140","ELEMENT_SET_NO":"999","MEAN_ANOMALY":"295.9186","EPHEMERIS_TYPE":"0","PERIOD":"95.593","APOAPSIS":"547.658","RCS_SIZE":"LARGE","RA_OF_ASC_NODE":"269.2695","FILE":"3123736","BSTAR":"-0.00002478500000","CLASSIFICATION_TYPE":"U","LAUNCH_DATE":"2020-10-06","DECAY_DATE":null,"COUNTRY_CODE":"US","MEAN_MOTION":"15.06393697","EPOCH":"2021-09-22T17:45:37.776384","PERIAPSIS":"546.808"},{"OBJECT_ID":"2020-070AM","TLE_LINE2":"2 46567  53.0541 269.4368 0000830  71.0569 289.0509 15.06407734 54262","NORAD_CAT_ID":"46567","MEAN_MOTION_DDOT":"0.0000000000000","TIME_SYSTEM":"UTC","OBJECT_TYPE":"PAYLOAD","CENTER_NAME":"EARTH","REV_AT_EPOCH":"5426","MEAN_MOTION_DOT":"0.00000930","MEAN_ELEMENT_THEORY":"SGP4","OBJECT_NAME":"STARLINK-1741","TLE_LINE1":"1 46567U 20070AM  21265.70315088  .00000930  00000-0  81273-4 0  9992","SITE":"AFETR","REF_FRAME":"TEME","ARG_OF_PERICENTER":"71.0569","INCLINATION":"53.0541","EPHEMERIS_TYPE":"0","MEAN_ANOMALY":"289.0509","PERIOD":"95.592","RCS_SIZE":"LARGE","APOAPSIS":"547.765","SEMIMAJOR_AXIS":"6925.325","GP_ID":"185268742","ECCENTRICITY":"0.00008300","ELEMENT_SET_NO":"999","CLASSIFICATION_TYPE":"U","BSTAR":"0.00008127300000","LAUNCH_DATE":"2020-10-06","DECAY_DATE":null,"MEAN_MOTION":"15.06407734","COUNTRY_CODE":"US","PERIAPSIS":"546.615","EPOCH":"2021-09-22T16:52:32.236032","FILE":"3123736","RA_OF_ASC_NODE":"269.4368"},{"INCLINATION":"53.0545","ARG_OF_PERICENTER":"276.9201","SITE":"AFETR","REF_FRAME":"TEME","TLE_LINE1":"1 46568U 20070AN  21265.45591319  .00131979  00000-0  44892-2 0  9990","OBJECT_NAME":"STARLINK-1743","MEAN_ELEMENT_THEORY":"SGP4","MEAN_MOTION_DOT":"0.00131979","REV_AT_EPOCH":"5406","CENTER_NAME":"EARTH","OBJECT_TYPE":"PAYLOAD","MEAN_MOTION_DDOT":"0.0000000000000","TIME_SYSTEM":"UTC","NORAD_CAT_ID":"46568","TLE_LINE2":"2 46568  53.0545 283.1307 0007998 276.9201  83.0888 15.29446738 54066","OBJECT_ID":"2020-070AN","RA_OF_ASC_NODE":"283.1307","FILE":"3123688","DECAY_DATE":null,"MEAN_MOTION":"15.29446738","COUNTRY_CODE":"US","EPOCH":"2021-09-22T10:56:30.899616","PERIAPSIS":"471.984","BSTAR":"0.00448920000000","CLASSIFICATION_TYPE":"U","LAUNCH_DATE":"2020-10-06","GP_ID":"185246220","ECCENTRICITY":"0.00079980","ELEMENT_SET_NO":"999","SEMIMAJOR_AXIS":"6855.602","RCS_SIZE":"LARGE","APOAPSIS":"482.950","MEAN_ANOMALY":"83.0888","EPHEMERIS_TYPE":"0","PERIOD":"94.152"},{"OBJECT_ID":"2020-070AP","TLE_LINE2":"2 46569  53.0537 269.3582 0000884  64.5068 295.6012 15.06394933 54264","NORAD_CAT_ID":"46569","MEAN_MOTION_DDOT":"0.0000000000000","TIME_SYSTEM":"UTC","OBJECT_TYPE":"PAYLOAD","MEAN_MOTION_DOT":"-0.00000475","REV_AT_EPOCH":"5426","CENTER_NAME":"EARTH","OBJECT_NAME":"STARLINK-1747","MEAN_ELEMENT_THEORY":"SGP4","REF_FRAME":"TEME","SITE":"AFETR","TLE_LINE1":"1 46569U 20070AP  21265.71790787 -.00000475  00000-0 -13009-4 0  9996","INCLINATION":"53.0537","ARG_OF_PERICENTER":"64.5068","MEAN_ANOMALY":"295.6012","EPHEMERIS_TYPE":"0","PERIOD":"95.592","APOAPSIS":"547.841","RCS_SIZE":"LARGE","SEMIMAJOR_AXIS":"6925.364","GP_ID":"185267763","ECCENTRICITY":"0.00008840","ELEMENT_SET_NO":"999","BSTAR":"-0.00001300900000","CLASSIFICATION_TYPE":"U","LAUNCH_DATE":"2020-10-06","MEAN_MOTION":"15.06394933","DECAY_DATE":null,"COUNTRY_CODE":"US","EPOCH":"2021-09-22T17:13:47.239968","PERIAPSIS":"546.617","FILE":"3123736","RA_OF_ASC_NODE":"269.3582"},{"FILE":"3123417","RA_OF_ASC_NODE":"270.6582","MEAN_MOTION":"15.06394048","DECAY_DATE":null,"COUNTRY_CODE":"US","PERIAPSIS":"546.445","EPOCH":"2021-09-22T10:14:27.727584","CLASSIFICATION_TYPE":"U","BSTAR":"-0.00000998320000","LAUNCH_DATE":"2020-10-06","GP_ID":"185238318","ECCENTRICITY":"0.00011360","ELEMENT_SET_NO":"999","SEMIMAJOR_AXIS":"6925.367","APOAPSIS":"548.019","RCS_SIZE":"LARGE","EPHEMERIS_TYPE":"0","MEAN_ANOMALY":"283.4281","PERIOD":"95.593","ARG_OF_PERICENTER":"76.6835","INCLINATION":"53.0532","TLE_LINE1":"1 46570U 20070AQ  21265.42670981 -.00000430  00000-0 -99832-5 0  9999","SITE":"AFETR","REF_FRAME":"TEME","MEAN_ELEMENT_THEORY":"SGP4","OBJECT_NAME":"STARLINK-1748","CENTER_NAME":"EARTH","MEAN_MOTION_DOT":"-0.00000430","REV_AT_EPOCH":"5421","OBJECT_TYPE":"PAYLOAD","MEAN_MOTION_DDOT":"0.0000000000000","TIME_SYSTEM":"UTC","NORAD_CAT_ID":"46570","TLE_LINE2":"2 46570  53.0532 270.6582 0001136  76.6835 283.4281 15.06394048 54218","OBJECT_ID":"2020-070AQ"},{"MEAN_ELEMENT_THEORY":"SGP4","OBJECT_NAME":"STARLINK-1753","CENTER_NAME":"EARTH","REV_AT_EPOCH":"5426","MEAN_MOTION_DOT":"0.00001230","ARG_OF_PERICENTER":"69.3248","INCLINATION":"53.0535","TLE_LINE1":"1 46571U 20070AR  21265.72158790  .00001230  00000-0  10143-3 0  9995","REF_FRAME":"TEME","SITE":"AFETR","TLE_LINE2":"2 46571  53.0535 269.3518 0000923  69.3248 290.7840 15.06402793 54260","NORAD_CAT_ID":"46571","OBJECT_ID":"2020-070AR","OBJECT_TYPE":"PAYLOAD","TIME_SYSTEM":"UTC","MEAN_MOTION_DDOT":"0.0000000000000","PERIAPSIS":"546.566","EPOCH":"2021-09-22T17:19:05.194560","COUNTRY_CODE":"US","DECAY_DATE":null,"MEAN_MOTION":"15.06402793","LAUNCH_DATE":"2020-10-06","CLASSIFICATION_TYPE":"U","BSTAR":"0.00010143000000","FILE":"3123736","RA_OF_ASC_NODE":"269.3518","APOAPSIS":"547.844","RCS_SIZE":"LARGE","PERIOD":"95.592","EPHEMERIS_TYPE":"0","MEAN_ANOMALY":"290.7840","ELEMENT_SET_NO":"999","ECCENTRICITY":"0.00009230","GP_ID":"185269242","SEMIMAJOR_AXIS":"6925.340"},{"OBJECT_ID":"2020-070AS","TLE_LINE2":"2 46572  53.0546 290.3826 0000976  91.5284 268.5817 15.06389117 53949","NORAD_CAT_ID":"46572","MEAN_MOTION_DDOT":"0.0000000000000","TIME_SYSTEM":"UTC","OBJECT_TYPE":"PAYLOAD","CENTER_NAME":"EARTH","MEAN_MOTION_DOT":"0.00001278","REV_AT_EPOCH":"5394","MEAN_ELEMENT_THEORY":"SGP4","OBJECT_NAME":"STARLINK-1531","TLE_LINE1":"1 46572U 20070AS  21265.49122477  .00001278  00000-0  10466-3 0  9993","REF_FRAME":"TEME","SITE":"AFETR","ARG_OF_PERICENTER":"91.5284","INCLINATION":"53.0546","EPHEMERIS_TYPE":"0","MEAN_ANOMALY":"268.5817","PERIOD":"95.593","APOAPSIS":"547.923","RCS_SIZE":"LARGE","SEMIMAJOR_AXIS":"6925.382","ECCENTRICITY":"0.00009760","GP_ID":"185238820","ELEMENT_SET_NO":"999","CLASSIFICATION_TYPE":"U","BSTAR":"0.00010466000000","LAUNCH_DATE":"2020-10-06","COUNTRY_CODE":"US","DECAY_DATE":null,"MEAN_MOTION":"15.06389117","PERIAPSIS":"546.571","EPOCH":"2021-09-22T11:47:21.820128","FILE":"3123417","RA_OF_ASC_NODE":"290.3826"},{"RA_OF_ASC_NODE":"274.2849","FILE":"3123736","MEAN_MOTION":"15.06397054","DECAY_DATE":null,"COUNTRY_CODE":"US","PERIAPSIS":"546.516","EPOCH":"2021-09-22T17:36:59.759136","CLASSIFICATION_TYPE":"U","BSTAR":"0.00008619300000","LAUNCH_DATE":"2020-10-06","GP_ID":"185268263","ECCENTRICITY":"0.00010210","ELEMENT_SET_NO":"999","SEMIMAJOR_AXIS":"6925.358","APOAPSIS":"547.930","RCS_SIZE":"LARGE","EPHEMERIS_TYPE":"0","MEAN_ANOMALY":"284.9936","PERIOD":"95.592","ARG_OF_PERICENTER":"75.1166","INCLINATION":"53.0535","TLE_LINE1":"1 46573U 20070AT  21265.73402499  .00001003  00000-0  86193-4 0  9993","SITE":"AFETR","REF_FRAME":"TEME","MEAN_ELEMENT_THEORY":"SGP4","OBJECT_NAME":"STARLINK-1650","CENTER_NAME":"EARTH","MEAN_MOTION_DOT":"0.00001003","REV_AT_EPOCH":"5419","OBJECT_TYPE":"PAYLOAD","MEAN_MOTION_DDOT":"0.0000000000000","TIME_SYSTEM":"UTC","NORAD_CAT_ID":"46573","TLE_LINE2":"2 46573  53.0535 274.2849 0001021  75.1166 284.9936 15.06397054 54194","OBJECT_ID":"2020-070AT"},{"ARG_OF_PERICENTER":"77.9026","INCLINATION":"53.0536","TLE_LINE1":"1 46574U 20070AU  21265.71927423  .00001047  00000-0  89124-4 0  9996","REF_FRAME":"TEME","SITE":"AFETR","MEAN_ELEMENT_THEORY":"SGP4","OBJECT_NAME":"STARLINK-1660","CENTER_NAME":"EARTH","REV_AT_EPOCH":"5419","MEAN_MOTION_DOT":"0.00001047","OBJECT_TYPE":"PAYLOAD","TIME_SYSTEM":"UTC","MEAN_MOTION_DDOT":"0.0000000000000","NORAD_CAT_ID":"46574","TLE_LINE2":"2 46574  53.0536 274.3616 0001011  77.9026 282.2076 15.06409231 54190","OBJECT_ID":"2020-070AU","RA_OF_ASC_NODE":"274.3616","FILE":"3123736","PERIAPSIS":"546.485","EPOCH":"2021-09-22T17:15:45.293472","MEAN_MOTION":"15.06409231","DECAY_DATE":null,"COUNTRY_CODE":"US","LAUNCH_DATE":"2020-10-06","CLASSIFICATION_TYPE":"U","BSTAR":"0.00008912400000","ELEMENT_SET_NO":"999","ECCENTRICITY":"0.00010110","GP_ID":"185268515","SEMIMAJOR_AXIS":"6925.320","APOAPSIS":"547.885","RCS_SIZE":"LARGE","PERIOD":"95.592","EPHEMERIS_TYPE":"0","MEAN_ANOMALY":"282.2076"}];
